[{"OBJECT_NAME":"STARLINK-32078","OBJECT_ID":"2024-136K","EPOCH":"2026-03-09T10:15:24.912288","MEAN_MOTION":15.30183824,"ECCENTRICITY":0.0001397,"INCLINATION":53.161,"RA_OF_ASC_NODE":76.9367,"ARG_OF_PERICENTER":99.4647,"MEAN_ANOMALY":260.6512,"EPHEMERIS_TYPE":0,"CLASSIFICATION_TYPE":"U","NORAD_CAT_ID":60338,"ELEMENT_SET_NO":999,"REV_AT_EPOCH":8962,"BSTAR":0.00012623976,"MEAN_MOTION_DOT":3.38e-5,"MEAN_MOTION_DDOT":0},{"OBJECT_NAME":"OBJECT A","OBJECT_ID":"2025-013A","EPOCH":"2026-03-09T23:29:31.895232","MEAN_MOTION":15.29260221,"ECCENTRICITY":0.0010321,"INCLINATION":97.6364,"RA_OF_ASC_NODE":244.5149,"ARG_OF_PERICENTER":282.3775,"MEAN_ANOMALY":77.6309,"EPHEMERIS_TYPE":0,"CLASSIFICATION_TYPE":"U","NORAD_CAT_ID":62729,"ELEMENT_SET_NO":999,"REV_AT_EPOCH":6276,"BSTAR":0.0013206527,"MEAN_MOTION_DOT":0.00037616,"MEAN_MOTION_DDOT":0}]
